CUPID                   
1 49264U 21088E   26068.66993977  .00009454  00000+0  38662-3 0  9991
2 49264  97.3985 131.0756 0013746  59.9938 300.2662 15.24473777245013
STARLINK-35767          
1 67058U 25294AE  26068.28181702  .00036113  00000+0  13143-2 0  9996
2 67058  43.0039  40.6469 0004230 243.6710 116.3707 15.27600826 14735
